0 FENGYUN 1C DEB
1 30527U 99025AJR 13281.34534965  .00000560  00000-0  86656-3 0  1612
2 30527 100.4161 310.2904 0431631 229.4931 199.6732 13.23898013324058
0 FENGYUN 1C DEB
1 30527U 99025AJR 13283.30888028  .00000639  00000-0  97890-3 0  1622
2 30527 100.4158 312.2578 0431772 224.9485 197.9238 13.23901886324317
0 FENGYUN 1C DEB
1 30527U 99025AJR 13285.35106725  .00000628  00000-0  96273-3 0  1639
2 30527 100.4152 314.3040 0431890 220.2233 211.0754 13.23904670324583
0 FENGYUN 1C DEB
1 30527U 99025AJR 13286.57845003  .00000706  00000-0  10738-2 0  1642
2 30527 100.4151 315.5341 0431996 217.3861 300.8426 13.23906319324743
0 FENGYUN 1C DEB
1 30527U 99025AJR 13289.35601256  .00000741  00000-0  11219-2 0  1656
2 30527 100.4145 318.3171 0432136 210.9651 218.8774 13.23912215325119
0 FENGYUN 1C DEB
1 30527U 99025AJR 13290.58319999  .00000774  00000-0  11691-2 0  1664
2 30527 100.4144 319.5464 0432182 208.1298 307.7431 13.23914461325273
0 FENGYUN 1C DEB
1 30527U 99025AJR 13291.63590627  .00000802  00000-0  12086-2 0  1672
2 30527 100.4144 320.6010 0432213 205.6952 285.0326 13.23915959325417
0 FENGYUN 1C DEB
1 30527U 99025AJR 13293.60084061  .00000870  00000-0  13052-2 0  1681
2 30527 100.4145 322.5693 0432270 201.1554 290.0910 13.23919378325670
0 FENGYUN 1C DEB
1 30527U 99025AJR 13295.32582301  .00000872  00000-0  13075-2 0  1690
2 30527 100.4141 324.2969 0432319 197.1674 231.5359 13.23922611325909
